{
  "type": "FeatureCollection",
  "features": [
    {
      "type": "Feature",
      "properties": {
        "norad_id": 43719,
        "name": "HYSIS",
        "group": "resource",
        "lat": 81.97650188831338,
        "lon": -53.020672089182035,
        "alt_km": 625.1624875527368,
        "timestamp": "2025-12-02T08:59:32.377317+00:00",
        "meta_object_name": "HYSIS",
        "meta_object_id": "2018-096A",
        "meta_epoch": "2025-12-02T02:05:19.807584",
        "meta_mean_motion": 14.78593325,
        "meta_eccentricity": 0.0001755,
        "meta_inclination": 98.0111,
        "meta_ra_of_asc_node": 39.1163,
        "meta_arg_of_pericenter": 68.8994,
        "meta_mean_anomaly": 291.2404,
        "meta_ephemeris_type": 0,
        "meta_classification_type": "U",
        "meta_norad_cat_id": 43719,
        "meta_element_set_no": 999,
        "meta_rev_at_epoch": 37829,
        "meta_bstar": 2.1475e-05,
        "meta_mean_motion_dot": 1.05e-06,
        "meta_mean_motion_ddot": 0,
        "tle_line1": "1 43719U 18096A   25336.08703481  .00000105  00000+0  21475-4 0  9996",
        "tle_line2": "2 43719  98.0111  39.1163 0001755  68.8994 291.2404 14.78593325378299"
      },
      "geometry": {
        "type": "Point",
        "coordinates": [
          -53.020672089182035,
          81.97650188831338
        ]
      }
    },
    {
      "type": "Feature",
      "properties": {
        "norad_id": 43783,
        "name": "KAZSTSAT",
        "group": "resource",
        "lat": -80.75029065698104,
        "lon": 65.52588163954776,
        "alt_km": 576.6207072031739,
        "timestamp": "2025-12-02T08:59:32.377328+00:00",
        "meta_object_name": "KAZSTSAT",
        "meta_object_id": "2018-099AB",
        "meta_epoch": "2025-12-02T01:21:35.195904",
        "meta_mean_motion": 14.99291992,
        "meta_eccentricity": 0.000662,
        "meta_inclination": 97.4552,
        "meta_ra_of_asc_node": 11.7011,
        "meta_arg_of_pericenter": 8.824,
        "meta_mean_anomaly": 351.3099,
        "meta_ephemeris_type": 0,
        "meta_classification_type": "U",
        "meta_norad_cat_id": 43783,
        "meta_element_set_no": 999,
        "meta_rev_at_epoch": 38176,
        "meta_bstar": 0.00020697,
        "meta_mean_motion_dot": 2.472e-05,
        "meta_mean_motion_ddot": 0,
        "tle_line1": "1 43783U 18099AB  25336.05665736  .00002472  00000+0  20697-3 0  9990",
        "tle_line2": "2 43783  97.4552  11.7011 0006620   8.8240 351.3099 14.99291992381766"
      },
      "geometry": {
        "type": "Point",
        "coordinates": [
          65.52588163954776,
          -80.75029065698104
        ]
      }
    },
    {
      "type": "Feature",
      "properties": {
        "norad_id": 43831,
        "name": "SAUDISAT 5A",
        "group": "resource",
        "lat": 69.62299384191208,
        "lon": 16.467851926397355,
        "alt_km": 476.24357430981763,
        "timestamp": "2025-12-02T08:59:32.377338+00:00",
        "meta_object_name": "SAUDISAT 5A",
        "meta_object_id": "2018-102A",
        "meta_epoch": "2025-12-02T03:57:35.044416",
        "meta_mean_motion": 15.25448853,
        "meta_eccentricity": 0.0011768,
        "meta_inclination": 97.3376,
        "meta_ra_of_asc_node": 36.5613,
        "meta_arg_of_pericenter": 108.7317,
        "meta_mean_anomaly": 251.5199,
        "meta_ephemeris_type": 0,
        "meta_classification_type": "U",
        "meta_norad_cat_id": 43831,
        "meta_element_set_no": 999,
        "meta_rev_at_epoch": 38561,
        "meta_bstar": 0.00030608,
        "meta_mean_motion_dot": 7.686e-05,
        "meta_mean_motion_ddot": 0,
        "tle_line1": "1 43831U 18102A   25336.16498894  .00007686  00000+0  30608-3 0  9995",
        "tle_line2": "2 43831  97.3376  36.5613 0011768 108.7317 251.5199 15.25448853385610"
      },
      "geometry": {
        "type": "Point",
        "coordinates": [
          16.467851926397355,
          69.62299384191208
        ]
      }
    },
    {
      "type": "Feature",
      "properties": {
        "norad_id": 43833,
        "name": "SAUDISAT 5B",
        "group": "resource",
        "lat": 68.65523403890867,
        "lon": -121.23376454184155,
        "alt_km": 473.16873047865647,
        "timestamp": "2025-12-02T08:59:32.377349+00:00",
        "meta_object_name": "SAUDISAT 5B",
        "meta_object_id": "2018-102C",
        "meta_epoch": "2025-12-02T05:21:51.746976",
        "meta_mean_motion": 15.25807797,
        "meta_eccentricity": 0.0012434,
        "meta_inclination": 97.347,
        "meta_ra_of_asc_node": 39.3383,
        "meta_arg_of_pericenter": 111.117,
        "meta_mean_anomaly": 249.1399,
        "meta_ephemeris_type": 0,
        "meta_classification_type": "U",
        "meta_norad_cat_id": 43833,
        "meta_element_set_no": 999,
        "meta_rev_at_epoch": 38573,
        "meta_bstar": 0.00029227,
        "meta_mean_motion_dot": 7.417e-05,
        "meta_mean_motion_ddot": 0,
        "tle_line1": "1 43833U 18102C   25336.22351559  .00007417  00000+0  29227-3 0  9997",
        "tle_line2": "2 43833  97.3470  39.3383 0012434 111.1170 249.1399 15.25807797385732"
      },
      "geometry": {
        "type": "Point",
        "coordinates": [
          -121.23376454184155,
          68.65523403890867
        ]
      }
    },
    {
      "type": "Feature",
      "properties": {
        "norad_id": 44622,
        "name": "GAOFEN-10R",
        "group": "resource",
        "lat": -40.07693931263088,
        "lon": 97.02366032959505,
        "alt_km": 632.310148323465,
        "timestamp": "2025-12-02T08:59:32.377359+00:00",
        "meta_object_name": "GAOFEN-10R",
        "meta_object_id": "2019-066A",
        "meta_epoch": "2025-12-02T04:45:44.707104",
        "meta_mean_motion": 14.8273038,
        "meta_eccentricity": 0.0008303,
        "meta_inclination": 98.0259,
        "meta_ra_of_asc_node": 283.6649,
        "meta_arg_of_pericenter": 70.5607,
        "meta_mean_anomaly": 289.6502,
        "meta_ephemeris_type": 0,
        "meta_classification_type": "U",
        "meta_norad_cat_id": 44622,
        "meta_element_set_no": 999,
        "meta_rev_at_epoch": 33318,
        "meta_bstar": 0.0002731,
        "meta_mean_motion_dot": 2.152e-05,
        "meta_mean_motion_ddot": 0,
        "tle_line1": "1 44622U 19066A   25336.19843411  .00002152  00000+0  27310-3 0  9995",
        "tle_line2": "2 44622  98.0259 283.6649 0008303  70.5607 289.6502 14.82730380333186"
      },
      "geometry": {
        "type": "Point",
        "coordinates": [
          97.02366032959505,
          -40.07693931263088
        ]
      }
    },
    {
      "type": "Feature",
      "properties": {
        "norad_id": 44804,
        "name": "CARTOSAT-3",
        "group": "resource",
        "lat": 74.62136193348114,
        "lon": -115.45904883147665,
        "alt_km": 492.06415477937117,
        "timestamp": "2025-12-02T08:59:32.377370+00:00",
        "meta_object_name": "CARTOSAT-3",
        "meta_object_id": "2019-081A",
        "meta_epoch": "2025-11-28T19:10:32.696256",
        "meta_mean_motion": 15.19179285,
        "meta_eccentricity": 0.00136919,
        "meta_inclination": 97.4604,
        "meta_ra_of_asc_node": 32.557,
        "meta_arg_of_pericenter": 130.907,
        "meta_mean_anomaly": 229.3352,
        "meta_ephemeris_type": 0,
        "meta_classification_type": "U",
        "meta_norad_cat_id": 44804,
        "meta_element_set_no": 999,
        "meta_rev_at_epoch": 33304,
        "meta_bstar": 0.00011293309,
        "meta_mean_motion_dot": 2.312e-05,
        "meta_mean_motion_ddot": 0,
        "tle_line1": "1 44804U 19081A   25332.79898954  .00002312  00000+0  11293-3 0  9999",
        "tle_line2": "2 44804  97.4604  32.5570 0013691 130.9070 229.3352 15.19179285333041"
      },
      "geometry": {
        "type": "Point",
        "coordinates": [
          -115.45904883147665,
          74.62136193348114
        ]
      }
    },
    {
      "type": "Feature",
      "properties": {
        "norad_id": 44819,
        "name": "GAOFEN-12 01",
        "group": "resource",
        "lat": -26.285415819382443,
        "lon": 159.039141576382,
        "alt_km": 633.1800522262783,
        "timestamp": "2025-12-02T08:59:32.377383+00:00",
        "meta_object_name": "GAOFEN-12 01",
        "meta_object_id": "2019-082A",
        "meta_epoch": "2025-12-02T04:49:07.874112",
        "meta_mean_motion": 14.80636883,
        "meta_eccentricity": 0.0001322,
        "meta_inclination": 97.8129,
        "meta_ra_of_asc_node": 342.7584,
        "meta_arg_of_pericenter": 305.8856,
        "meta_mean_anomaly": 54.2233,
        "meta_ephemeris_type": 0,
        "meta_classification_type": "U",
        "meta_norad_cat_id": 44819,
        "meta_element_set_no": 999,
        "meta_rev_at_epoch": 32494,
        "meta_bstar": 8.9925e-05,
        "meta_mean_motion_dot": 6.4e-06,
        "meta_mean_motion_ddot": 0,
        "tle_line1": "1 44819U 19082A   25336.20078558  .00000640  00000+0  89925-4 0  9996",
        "tle_line2": "2 44819  97.8129 342.7584 0001322 305.8856  54.2233 14.80636883324948"
      },
      "geometry": {
        "type": "Point",
        "coordinates": [
          159.039141576382,
          -26.285415819382443
        ]
      }
    }
  ]
}